[{"OBJECT_NAME":"STARLINK-31767","OBJECT_ID":"2024-080E","EPOCH":"2026-03-09T06:03:18.713952","MEAN_MOTION":15.27579319,"ECCENTRICITY":0.00012597,"INCLINATION":43.0049,"RA_OF_ASC_NODE":40.5604,"ARG_OF_PERICENTER":263.3958,"MEAN_ANOMALY":96.675,"EPHEMERIS_TYPE":0,"CLASSIFICATION_TYPE":"U","NORAD_CAT_ID":59605,"ELEMENT_SET_NO":999,"REV_AT_EPOCH":10446,"BSTAR":6.533079e-6,"MEAN_MOTION_DOT":-8.2e-7,"MEAN_MOTION_DDOT":0},{"OBJECT_NAME":"CZ-6A DEB","OBJECT_ID":"2024-140KE","EPOCH":"2026-03-09T13:17:54.060288","MEAN_MOTION":15.16973657,"ECCENTRICITY":0.0047014,"INCLINATION":88.8608,"RA_OF_ASC_NODE":269.4441,"ARG_OF_PERICENTER":134.0266,"MEAN_ANOMALY":226.4867,"EPHEMERIS_TYPE":0,"CLASSIFICATION_TYPE":"U","NORAD_CAT_ID":60875,"ELEMENT_SET_NO":999,"REV_AT_EPOCH":8467,"BSTAR":0.004516425,"MEAN_MOTION_DOT":0.00092692,"MEAN_MOTION_DDOT":0}]
